{
    "links": {
        "self": "http://www.neowsapp.com/rest/v1/neo/3836661?api_key=iIulBulltgU6a56xZRHN4H3l9WmuAYTsLGpBGhQ2"
    },
    "id": "3836661",
    "neo_reference_id": "3836661",
    "name": "(2018 WO2)",
    "designation": "2018 WO2",
    "nasa_jpl_url": "http://ssd.jpl.nasa.gov/sbdb.cgi?sstr=3836661",
    "absolute_magnitude_h": 22.3,
    "estimated_diameter": {
        "kilometers": {
            "estimated_diameter_min": 0.0921626549,
            "estimated_diameter_max": 0.2060819612
        },
        "meters": {
            "estimated_diameter_min": 92.1626548503,
            "estimated_diameter_max": 206.0819612321
        },
        "miles": {
            "estimated_diameter_min": 0.057267201,
            "estimated_diameter_max": 0.1280533543
        },
        "feet": {
            "estimated_diameter_min": 302.370924539,
            "estimated_diameter_max": 676.1219416887
        }
    },
    "is_potentially_hazardous_asteroid": false,
    "close_approach_data": [
        {
            "close_approach_date": "2018-11-24",
            "close_approach_date_full": "2018-Nov-24 19:14",
            "epoch_date_close_approach": 1543086840000,
            "relative_velocity": {
                "kilometers_per_second": "13.5777843419",
                "kilometers_per_hour": "48880.0236307802",
                "miles_per_hour": "30372.145794359"
            },
            "miss_distance": {
                "astronomical": "0.1082602981",
                "lunar": "42.1132559609",
                "kilometers": "16195510.001325047",
                "miles": "10063423.2676857686"
            },
            "orbiting_body": "Earth"
        }
    ],
    "orbital_data": {
        "orbit_id": "11",
        "orbit_determination_date": "2019-01-21 07:51:09",
        "first_observation_date": "2018-11-29",
        "last_observation_date": "2018-12-18",
        "data_arc_in_days": 19,
        "observations_used": 52,
        "orbit_uncertainty": "7",
        "minimum_orbit_intersection": ".0119212",
        "jupiter_tisserand_invariant": "3.075",
        "epoch_osculation": "2459000.5",
        "eccentricity": ".6292463085487414",
        "semi_major_axis": "2.622666769373648",
        "inclination": "8.782784774087268",
        "ascending_node_longitude": "50.40100945937411",
        "orbital_period": "1551.361813556124",
        "perihelion_distance": ".9723633861918266",
        "perihelion_argument": "335.6730462938015",
        "aphelion_distance": "4.27297015255547",
        "perihelion_time": "2458423.123376849903",
        "mean_anomaly": "133.9826612449459",
        "mean_motion": ".2320541841717675",
        "equinox": "J2000",
        "orbit_class": {
            "orbit_class_type": "APO",
            "orbit_class_description": "Near-Earth asteroid orbits which cross the Earth’s orbit similar to that of 1862 Apollo",
            "orbit_class_range": "a (semi-major axis) > 1.0 AU; q (perihelion) < 1.017 AU"
        }
    },
    "is_sentry_object": false
}